TANAGER-1               
1 60507U 24149AR  26068.82284127  .00024437  00000+0  54445-3 0  9998
2 60507  97.3806 162.1974 0009747 227.3820 132.6607 15.43548408 87703
LASARSAT                
1 62391U 24247Q   26067.38809064  .00046774  00000+0  11460-2 0  9990
2 62391  44.9748 105.9976 0002457  26.6184 333.4829 15.40076521 67748
