[{"OBJECT_NAME":"TANAGER-1","OBJECT_ID":"2024-149AR","EPOCH":"2026-03-09T19:44:53.485728","MEAN_MOTION":15.43548408,"ECCENTRICITY":0.00097475,"INCLINATION":97.3806,"RA_OF_ASC_NODE":162.1974,"ARG_OF_PERICENTER":227.382,"MEAN_ANOMALY":132.6607,"EPHEMERIS_TYPE":0,"CLASSIFICATION_TYPE":"U","NORAD_CAT_ID":60507,"ELEMENT_SET_NO":999,"REV_AT_EPOCH":8770,"BSTAR":0.00054444932,"MEAN_MOTION_DOT":0.00024437,"MEAN_MOTION_DDOT":0},{"OBJECT_NAME":"LASARSAT","OBJECT_ID":"2024-247Q","EPOCH":"2026-03-08T09:18:51.031296","MEAN_MOTION":15.40076521,"ECCENTRICITY":0.0002457,"INCLINATION":44.9748,"RA_OF_ASC_NODE":105.9976,"ARG_OF_PERICENTER":26.6184,"MEAN_ANOMALY":333.4829,"EPHEMERIS_TYPE":0,"CLASSIFICATION_TYPE":"U","NORAD_CAT_ID":62391,"ELEMENT_SET_NO":999,"REV_AT_EPOCH":6774,"BSTAR":0.0011460197,"MEAN_MOTION_DOT":0.00046774,"MEAN_MOTION_DDOT":0}]
